{"type": "FeatureCollection", "features": [ {"type": "Feature", "properties": {"norad_id": 65943, "name": "E-KAGAKU-1", "group": "stations", "lat": -51.553190145997455, "lon": 62.01394110209038, "alt_km": 395.6523866845282, "timestamp": "2025-12-09T14:52:24.959014+00:00", "meta": {"OBJECT_NAME": "E-KAGAKU-1", "OBJECT_ID": "1998-067XQ", "EPOCH": "2025-12-08T17:43:35.861664", "MEAN_MOTION": 15.58651727, "ECCENTRICITY": 0.00029774, "INCLINATION": 51.6297, "RA_OF_ASC_NODE": 160.0822, "ARG_OF_PERICENTER": 178.8942, "MEAN_ANOMALY": 181.2057, "EPHEMERIS_TYPE": 0, "CLASSIFICATION_TYPE": "U", "NORAD_CAT_ID": 65943, "ELEMENT_SET_NO": 999, "REV_AT_EPOCH": 923, "BSTAR": 0.00085624806, "MEAN_MOTION_DOT": 0.00067115, "MEAN_MOTION_DDOT": 0}, "tle": {"line1": "1 65943U 98067XQ  25342.73860951  .00067115  00000+0  85625-3 0  9990", "line2": "2 65943  51.6297 160.0822 0002977 178.8942 181.2057 15.58651727  9237"}}, "geometry": {"type": "Point", "coordinates": [62.01394110209038, -51.553190145997455]}}, {"type": "Feature", "properties": {"norad_id": 66052, "name": "HRC MONOBLOCK CAMERA", "group": "stations", "lat": -36.81344250949371, "lon": 120.68639087113456, "alt_km": 411.6535922059329, "timestamp": "2025-12-09T14:52:24.959027+00:00", "meta": {"OBJECT_NAME": "HRC MONOBLOCK CAMERA", "OBJECT_ID": "1998-067XR", "EPOCH": "2025-12-09T02:44:20.184864", "MEAN_MOTION": 15.53759866, "ECCENTRICITY": 0.00038484, "INCLINATION": 51.6287, "RA_OF_ASC_NODE": 159.5802, "ARG_OF_PERICENTER": 169.4423, "MEAN_ANOMALY": 190.6649, "EPHEMERIS_TYPE": 0, "CLASSIFICATION_TYPE": "U", "NORAD_CAT_ID": 66052, "ELEMENT_SET_NO": 999, "REV_AT_EPOCH": 827, "BSTAR": 0.0006512568, "MEAN_MOTION_DOT": 0.00042294, "MEAN_MOTION_DDOT": 0}, "tle": {"line1": "1 66052U 98067XR  25343.11412251  .00042294  00000+0  65126-3 0  9996", "line2": "2 66052  51.6287 159.5802 0003848 169.4423 190.6649 15.53759866  8279"}}, "geometry": {"type": "Point", "coordinates": [120.68639087113456, -36.81344250949371]}}, {"type": "Feature", "properties": {"norad_id": 66174, "name": "HTV-X1", "group": "stations", "lat": -48.714213572622704, "lon": 42.387166563355855, "alt_km": 420.85052000483665, "timestamp": "2025-12-09T14:52:24.959037+00:00", "meta": {"OBJECT_NAME": "HTV-X1", "OBJECT_ID": "2025-241A", "EPOCH": "2025-12-09T04:29:48.234912", "MEAN_MOTION": 15.4943846, "ECCENTRICITY": 0.00033664, "INCLINATION": 51.6308, "RA_OF_ASC_NODE": 160.0685, "ARG_OF_PERICENTER": 223.6321, "MEAN_ANOMALY": 136.4401, "EPHEMERIS_TYPE": 0, "CLASSIFICATION_TYPE": "U", "NORAD_CAT_ID": 66174, "ELEMENT_SET_NO": 999, "REV_AT_EPOCH": 51, "BSTAR": 0.0002526091, "MEAN_MOTION_DOT": 0.00013707, "MEAN_MOTION_DDOT": 0}, "tle": {"line1": "1 66174U 25241A   25343.18736383  .00013707  00000+0  25261-3 0  9990", "line2": "2 66174  51.6308 160.0685 0003366 223.6321 136.4401 15.49438460   511"}}, "geometry": {"type": "Point", "coordinates": [42.387166563355855, -48.714213572622704]}}, {"type": "Feature", "properties": {"norad_id": 66515, "name": "SZ-21 MODULE", "group": "stations", "lat": 35.826591755858615, "lon": 160.26610465747964, "alt_km": 377.7715820609674, "timestamp": "2025-12-09T14:52:24.959048+00:00", "meta": {"OBJECT_NAME": "SZ-21 MODULE", "OBJECT_ID": "2025-246C", "EPOCH": "2025-12-09T05:09:56.835360", "MEAN_MOTION": 15.62223553, "ECCENTRICITY": 0.00062826, "INCLINATION": 41.4773, "RA_OF_ASC_NODE": 37.5424, "ARG_OF_PERICENTER": 241.0117, "MEAN_ANOMALY": 119.0093, "EPHEMERIS_TYPE": 0, "CLASSIFICATION_TYPE": "U", "NORAD_CAT_ID": 66515, "ELEMENT_SET_NO": 999, "REV_AT_EPOCH": 389, "BSTAR": 0.00035922039, "MEAN_MOTION_DOT": 0.00032371, "MEAN_MOTION_DDOT": 0}, "tle": {"line1": "1 66515U 25246C   25343.21524115  .00032371  00000+0  35922-3 0  9999", "line2": "2 66515  41.4773  37.5424 0006282 241.0117 119.0093 15.62223553  3897"}}, "geometry": {"type": "Point", "coordinates": [160.26610465747964, 35.826591755858615]}}, {"type": "Feature", "properties": {"norad_id": 66645, "name": "SHENZHOU-22", "group": "stations", "lat": -37.40163302681708, "lon": -84.37730845306396, "alt_km": 396.4940281498557, "timestamp": "2025-12-09T14:52:24.959058+00:00", "meta": {"OBJECT_NAME": "SHENZHOU-22", "OBJECT_ID": "2025-272A", "EPOCH": "2025-12-09T04:35:44.551104", "MEAN_MOTION": 15.58940873, "ECCENTRICITY": 0.00089717, "INCLINATION": 41.468, "RA_OF_ASC_NODE": 38.2458, "ARG_OF_PERICENTER": 2.1097, "MEAN_ANOMALY": 357.9778, "EPHEMERIS_TYPE": 0, "CLASSIFICATION_TYPE": "U", "NORAD_CAT_ID": 66645, "ELEMENT_SET_NO": 999, "REV_AT_EPOCH": 26300, "BSTAR": 0.00038224086, "MEAN_MOTION_DOT": 0.00030369, "MEAN_MOTION_DDOT": 0}, "tle": {"line1": "1 66645U 25272A   25343.19148786  .00030369  00000+0  38224-3 0  9998", "line2": "2 66645  41.4680  38.2458 0008971   2.1097 357.9778 15.58940873263003"}}, "geometry": {"type": "Point", "coordinates": [-84.37730845306396, -37.40163302681708]}}, {"type": "Feature", "properties": {"norad_id": 66664, "name": "SOYUZ-MS 28", "group": "stations", "lat": -48.71421424859309, "lon": 42.38716941487778, "alt_km": 420.850520062947, "timestamp": "2025-12-09T14:52:24.959068+00:00", "meta": {"OBJECT_NAME": "SOYUZ-MS 28", "OBJECT_ID": "2025-275A", "EPOCH": "2025-12-09T04:29:48.234912", "MEAN_MOTION": 15.4943846, "ECCENTRICITY": 0.00033664, "INCLINATION": 51.6308, "RA_OF_ASC_NODE": 160.0685, "ARG_OF_PERICENTER": 223.6321, "MEAN_ANOMALY": 136.4401, "EPHEMERIS_TYPE": 0, "CLASSIFICATION_TYPE": "U", "NORAD_CAT_ID": 66664, "ELEMENT_SET_NO": 999, "REV_AT_EPOCH": 128, "BSTAR": 0.0002526091, "MEAN_MOTION_DOT": 0.00013707, "MEAN_MOTION_DDOT": 0}, "tle": {"line1": "1 66664U 25275A   25343.18736383  .00013707  00000+0  25261-3 0  9991", "line2": "2 66664  51.6308 160.0685 0003366 223.6321 136.4401 15.49438460  1280"}}, "geometry": {"type": "Point", "coordinates": [42.38716941487778, -48.71421424859309]}}, {"type": "Feature", "properties": {"norad_id": 66906, "name": "1998-067XS", "group": "stations", "lat": -51.54872034459134, "lon": 71.67619361540947, "alt_km": 420.1393996567931, "timestamp": "2025-12-09T14:52:24.959078+00:00", "meta": {"OBJECT_NAME": "1998-067XS", "OBJECT_ID": "1998-067XS", "EPOCH": "2025-12-08T22:13:59.028960", "MEAN_MOTION": 15.50272351, "ECCENTRICITY": 0.0004021, "INCLINATION": 51.6297, "RA_OF_ASC_NODE": 161.3264, "ARG_OF_PERICENTER": 185.5281, "MEAN_ANOMALY": 174.5664, "EPHEMERIS_TYPE": 0, "CLASSIFICATION_TYPE": "U", "NORAD_CAT_ID": 66906, "ELEMENT_SET_NO": 999, "REV_AT_EPOCH": 102, "BSTAR": 0.000538, "MEAN_MOTION_DOT": 0.0003067, "MEAN_MOTION_DDOT": 0}, "tle": {"line1": "1 66906U 98067XS  25342.92637765  .00030670  00000+0  53800-3 0  9992", "line2": "2 66906  51.6297 161.3264 0004021 185.5281 174.5664 15.50272351  1026"}}, "geometry": {"type": "Point", "coordinates": [71.67619361540947, -51.54872034459134]}}, {"type": "Feature", "properties": {"norad_id": 66907, "name": "1998-067XT", "group": "stations", "lat": -50.63143438200138, "lon": 82.9352498711494, "alt_km": 417.6845193864756, "timestamp": "2025-12-09T14:52:24.959089+00:00", "meta": {"OBJECT_NAME": "1998-067XT", "OBJECT_ID": "1998-067XT", "EPOCH": "2025-12-08T19:06:53.694720", "MEAN_MOTION": 15.50762002, "ECCENTRICITY": 0.00049716, "INCLINATION": 51.6302, "RA_OF_ASC_NODE": 161.9586, "ARG_OF_PERICENTER": 204.3216, "MEAN_ANOMALY": 155.7539, "EPHEMERIS_TYPE": 0, "CLASSIFICATION_TYPE": "U", "NORAD_CAT_ID": 66907, "ELEMENT_SET_NO": 999, "REV_AT_EPOCH": 100, "BSTAR": 0.0012614232, "MEAN_MOTION_DOT": 0.00074227, "MEAN_MOTION_DDOT": 0}, "tle": {"line1": "1 66907U 98067XT  25342.79645480  .00074227  00000+0  12614-2 0  9994", "line2": "2 66907  51.6302 161.9586 0004971 204.3216 155.7539 15.50762002  1006"}}, "geometry": {"type": "Point", "coordinates": [82.9352498711494, -50.63143438200138]}}, {"type": "Feature", "properties": {"norad_id": 66908, "name": "1998-067XU", "group": "stations", "lat": -50.388737689069316, "lon": 84.66207699642432, "alt_km": 417.7161091701091, "timestamp": "2025-12-09T14:52:24.959101+00:00", "meta": {"OBJECT_NAME": "1998-067XU", "OBJECT_ID": "1998-067XU", "EPOCH": "2025-12-08T22:12:12.980736", "MEAN_MOTION": 15.50818267, "ECCENTRICITY": 0.0005167, "INCLINATION": 51.6297, "RA_OF_ASC_NODE": 161.3178, "ARG_OF_PERICENTER": 203.3313, "MEAN_ANOMALY": 156.7442, "EPHEMERIS_TYPE": 0, "CLASSIFICATION_TYPE": "U", "NORAD_CAT_ID": 66908, "ELEMENT_SET_NO": 999, "REV_AT_EPOCH": 102, "BSTAR": 0.0011183, "MEAN_MOTION_DOT": 0.00065818, "MEAN_MOTION_DDOT": 0}, "tle": {"line1": "1 66908U 98067XU  25342.92515024  .00065818  00000+0  11183-2 0  9996", "line2": "2 66908  51.6297 161.3178 0005167 203.3313 156.7442 15.50818267  1027"}}, "geometry": {"type": "Point", "coordinates": [84.66207699642432, -50.388737689069316]}}, {"type": "Feature", "properties": {"norad_id": 66909, "name": "SILVERSAT", "group": "stations", "lat": -50.16284794930876, "lon": 86.11546952492503, "alt_km": 417.36539096309025, "timestamp": "2025-12-09T14:52:24.959114+00:00", "meta": {"OBJECT_NAME": "SILVERSAT", "OBJECT_ID": "1998-067XV", "EPOCH": "2025-12-08T17:33:40.093920", "MEAN_MOTION": 15.50878297, "ECCENTRICITY": 0.0005012, "INCLINATION": 51.6297, "RA_OF_ASC_NODE": 162.2763, "ARG_OF_PERICENTER": 204.4469, "MEAN_ANOMALY": 155.6283, "EPHEMERIS_TYPE": 0, "CLASSIFICATION_TYPE": "U", "NORAD_CAT_ID": 66909, "ELEMENT_SET_NO": 999, "REV_AT_EPOCH": 99, "BSTAR": 0.0013404205, "MEAN_MOTION_DOT": 0.00079284, "MEAN_MOTION_DDOT": 0}, "tle": {"line1": "1 66909U 98067XV  25342.73171405  .00079284  00000+0  13404-2 0  9997", "line2": "2 66909  51.6297 162.2763 0005012 204.4469 155.6283 15.50878297   996"}}, "geometry": {"type": "Point", "coordinates": [86.11546952492503, -50.16284794930876]}}]}